IRIDIUM 39              
1 25042U 97069D   25180.55723755  .00000311  00000+0  76135-4 0  9999
2 25042  86.3922 205.8300 0015486 265.1080  94.8356 14.49229309450758
IRIDIUM 38              
1 25043U 97069E   25181.18022021  .00000249  00000+0  75618-4 0  9993
2 25043  86.3956 227.6902 0004061  75.7901 284.3748 14.38124957448085
IRIDIUM 42              
1 25077U 97077A   25181.55070040  .00000257  00000+0  81089-4 0  9992
2 25077  86.3959 233.7202 0003040  87.4780 272.6765 14.36360256443117
IRIDIUM 44              
1 25078U 97077B   25181.53856074  .00000223  00000+0  64234-4 0  9996
2 25078  86.3963 215.6181 0002547  45.8665 314.2744 14.40249291445650
IRIDIUM 45              
1 25104U 97082A   25180.67491639  .00007207  00000+0  25692-3 0  9991
2 25104  86.3572  41.8268 0113413 285.2067  73.6659 15.22697130453944
IRIDIUM 24              
1 25105U 97082B   25180.80064216  .00000300  00000+0  85146-4 0  9992
2 25105  86.3895  74.9512 0012985  43.9519 316.2712 14.42107992445035
IRIDIUM 51              
1 25262U 98018A   25180.70160906  .00019869  00000+0  43244-3 0  9990
2 25262  86.3816  49.6330 0084450 200.3354 159.4532 15.40339808448954
IRIDIUM 57              
1 25273U 98019B   25180.85500705  .00000232  00000+0  73299-4 0  9992
2 25273  86.3980 139.9561 0002351  85.4294 274.7171 14.35899508426601
